EVENT_NAME: None
EVENT_ID: TK-1998-0063
EVENT_DATE_YYYYMMDD: 19980627
EVENT_TIME_HHMMSS: 135555
EVENT_LATITUDE_DEGREE: 36.9312
EVENT_LONGITUDE_DEGREE: 35.2796
EVENT_DEPTH_KM: 37.9
HYPOCENTER_REFERENCE: ISC-webservice
MAGNITUDE_W: 6.3
MAGNITUDE_W_REFERENCE: USGS-webservice
MAGNITUDE_L: 
MAGNITUDE_L_REFERENCE: 
FOCAL_MECHANISM: 
NETWORK: TK
STATION_CODE: 0105
STATION_NAME: AI_022_CYH_TIM
STATION_LATITUDE_DEGREE: 37.026700
STATION_LONGITUDE_DEGREE: 35.816240
STATION_ELEVATION_M: 
LOCATION: 00
SENSOR_DEPTH_M: 
VS30_M/S: 
SITE_CLASSIFICATION_EC8: C (inferred from topography)
MORPHOLOGIC_CLASSIFICATION: 
EPICENTRAL_DISTANCE_KM: 48.9
EARTHQUAKE_BACKAZIMUTH_DEGREE: 77.3
DATE_TIME_FIRST_SAMPLE_YYYYMMDD_HHMMSS: 19980627_135553.000
DATE_TIME_FIRST_SAMPLE_PRECISION: seconds
SAMPLING_INTERVAL_S: 0.005000
NDATA: 5843
DURATION_S: 29.215
STREAM: HNN
UNITS: cm/s^2
INSTRUMENT: HN
INSTRUMENT_ANALOG/DIGITAL: A
INSTRUMENTAL_FREQUENCY_HZ: 
INSTRUMENTAL_DAMPING: 
FULL_SCALE_G: 
N_BIT_DIGITAL_CONVERTER: 
PGA_CM/S^2: -221.651352
TIME_PGA_S: 8.180000
BASELINE_CORRECTION: BASELINE REMOVED
FILTER_TYPE: BUTTERWORTH
FILTER_ORDER: 2
LOW_CUT_FREQUENCY_HZ: 0.100
HIGH_CUT_FREQUENCY_HZ: 22.000
LATE/NORMAL_TRIGGERED: NT
DATABASE_VERSION: 0.5
HEADER_FORMAT: DYNA 1.2
DATA_TYPE: ACCELERATION
PROCESSING: manual (Paolucci et al., 2011)
DATA_TIMESTAMP_YYYYMMDD_HHMMSS: 20240505_201533.108
DATA_LICENSE: U (unknown license)
DATA_CITATION: Luzi L., Lanzano G., Felicetta C., D Amico M. C., Russo E., Sgobba S., Pacor, F., & ORFEUS Working Group 5 (2020). Engineering Strong Motion Database (ESM) (Version 2.0). Istituto Nazionale di Geofisica e Vulcanologia (INGV). https://doi.org/10.13127/ESM.2
DATA_CREATOR: ESM working group
ORIGINAL_DATA_MEDIATOR_CITATION: Akkar et al. (2010) DOI: 10.1007/s10950-009-9176-9
ORIGINAL_DATA_MEDIATOR: Strong Ground Motion Database of Turkiye
ORIGINAL_DATA_CREATOR_CITATION: Disaster And Emergency Management Authority. (1973). Turkish National Strong Motion Network. Department of Earthquake, Disaster and Emergency Management Authority. https://doi.org/10.7914/SN/TK http://www.fdsn.org/networks/detail/TK/
ORIGINAL_DATA_CREATOR: network: TK (Turkish National Strong Motion Network (TNSMN)); owner: Disaster and Emergency Management Authority (AFAD)
USER1: 
USER2: 
USER3: 
USER4: 
USER5: 
[...]
-1.486665
-2.121026
-2.837191
-3.568934
-4.246027
-4.753864
-5.043841
-5.176914
-5.229818
-5.242354
-5.235670
-5.223963
-5.215043
-5.213081
-5.221142
-5.242061
-5.276761
-5.319498
-5.350461
-5.328232
-5.188289
-4.858512
-4.300738
-3.533510
-2.568974
-1.374739
0.024745
1.547366
3.228487
5.162551
7.232592
9.125145
10.617810
11.743609
12.672502
13.506789
14.274174
15.001274
15.647814
16.084846
16.217045
16.027107
15.526221
14.758824
13.788211
12.643332
11.396108
10.238242
9.317869
8.603709
7.997795
7.388395
6.626231
5.717357
4.933778
4.541788
4.608322
5.117977
6.036704
7.261689
8.647577
10.059605
11.370415
12.450051
13.203446
13.631092
13.825246
13.891595
13.898113
13.883820
13.874235
13.884756
13.920179
13.970470
14.002141
13.949008
13.712320
13.187380
12.326860
11.194531
9.934319
8.689007
7.559241
6.587823
5.766640
5.130136
4.824094
4.993395
5.624829
6.530765
7.448841
8.170737
8.624799
8.860302
8.964847
9.004917
9.022444
9.043742
9.076687
9.103930
9.076618
8.913980
8.521490
7.846045
6.942252
5.955545
5.006604
4.099598
3.159319
2.166589
1.221842
0.443190
-0.171670
-0.776589
-1.577196
-2.655399
-3.876063
-5.046649
-6.146648
-7.260194
-8.370092
-9.375453
-10.231552
-10.974438
-11.619939
-12.108716
-12.409740
-12.607101
-12.836242
-13.198867
-13.718052
-14.301452
-14.790211
-15.088067
-15.183825
-15.054629
-14.636015
-13.901158
-12.940641
-11.934780
-11.029141
-10.251515
-9.559786
-8.948162
-8.430394
-7.910265
-7.186166
-6.131437
-4.817711
-3.393711
-1.876791
-0.224622
1.455799
2.989318
4.334248
5.591646
6.943604
8.578795
10.515299
12.502071
14.181900
15.341117
16.002092
16.306269
16.338604
16.080553
15.476559
14.535119
13.434442
12.484257
11.888742
11.612621
11.508065
11.438519
11.269961
10.861274
10.119099
9.062734
7.799703
6.430296
5.008024
3.561002
2.105981
0.652825
-0.787988
-2.198424
-3.550204
-4.811418
-5.968855
-7.071226
-8.266574
-9.737730
-11.536944
-13.559190
-15.697756
-17.869413
-19.904716
-21.578394
-22.704651
-23.145697
-22.857170
-21.969551
-20.727140
-19.350132
-18.004812
-16.839233
-15.968058
-15.418393
-15.121092
-14.982748
-14.961422
-15.078896
-15.394027
-15.955980
-16.755112
-17.748693
-18.916973
-20.178133
-21.297216
-22.043901
-22.356169
-22.239416
-21.646435
-20.558187
-19.128527
-17.659454
-16.380953
-15.299757
-14.282297
-13.240430
-12.231543
-11.392804
-10.796976
-10.378918
-9.990606
-9.523557
-8.966367
-8.318477
-7.460286
-6.184254
-4.357196
-1.978454
0.896567
4.215521
7.894751
11.759808
15.579102
19.179462
22.516787
25.623774
28.493824
31.028627
33.084606
34.551392
35.384987
35.572231
35.071182
33.820679
31.844387
29.276754
26.240549
22.789303
19.021748
15.208555
11.692499
8.632970
6.042250
4.027707
2.678274
1.818403
1.147607
0.522502
0.003869
-0.286892
-0.295232
-0.030618
0.466825
1.119015
1.868344
2.744652
3.784469
4.941413
6.148833
7.398642
8.669038
9.754595
10.284337
10.025037
9.085312
7.773773
6.338734
4.918925
3.736585
3.117470
3.207437
3.847837
4.737520
5.592659
6.233725
6.633552
6.867988
7.007375
7.064374
6.997106
6.717211
6.120421
5.174471
4.014369
2.865291
1.807116
0.745257
-0.373692
-1.500284
-2.620114
-3.804301
-5.070407
-6.248154
-7.110140
-7.590653
-7.732700
-7.510920
-6.822999
-5.602358
-3.910085
-1.939075
0.091712
2.059129
3.919919
5.645667
7.295229
9.019008
10.838723
12.579413
14.071860
15.242930
16.055643
16.518423
16.690372
16.604906
16.236698
15.566795
14.664571
13.682406
12.749719
11.876828
10.975970
9.986725
8.948528
7.919090
6.865250
5.688910
4.364498
2.944421
1.372500
-0.509064
-2.704862
-5.035661
-7.366285
-9.711025
-12.113957
-14.485429
-16.604155
-18.291742
-19.549446
-20.479160
-21.086576
-21.268349
-20.983261
-20.311546
-19.339764
-18.072964
-16.543386
-14.966694
-13.644841
-12.733618
-12.194456
-11.917579
-11.841097
-11.987224
-12.430782
-13.229143
-14.308393
-15.407159
-16.245930
-16.747583
-16.983702
-16.982887
-16.686172
-16.017899
-14.992166
-13.815197
-12.808266
-12.156222
-11.845674
-11.861091
-12.289105
-13.230784
-14.683249
-16.495701
-18.431288
-20.295294
-22.011280
-23.560438
-24.880568
-25.853916
-26.357027
-26.283344
-25.523487
-24.009729
-21.835276
-19.232805
-16.406515
-13.471980
-10.518703
-7.655342
-5.022528
-2.777953
-1.048295
0.102657
0.680461
0.826962
0.891673
1.294836
2.250247
3.665312
5.320537
7.116986
9.113254
11.352749
13.717568
15.931436
17.683174
18.785915
19.246119
19.174263
18.674786
17.850691
16.800190
15.587661
14.344714
13.315218
12.651568
12.296136
12.139489
12.157454
12.395711
12.917290
13.732279
14.727057
15.693543
16.455647
16.959572
17.249363
17.371641
17.308426
16.981417
16.304075
15.283371
14.098671
12.965684
11.903401
10.778901
9.515488
8.103526
6.504013
4.653254
2.523377
0.121028
-2.567516
-5.507598
-8.438306
-10.922578
-12.639801
-13.546192
-13.788045
-13.557879
-13.052939
-12.487808
-12.024797
-11.703959
-11.510429
-11.481031
-11.731169
-12.419453
-13.654399
-15.387122
-17.460403
-19.768114
-22.231695
-24.642635
-26.670664
-28.034664
-28.620785
-28.410603
-27.350365
-25.377316
-22.468847
-18.577663
-13.656729
-7.812061
-1.345818
5.348134
11.884952
17.951147
23.353224
28.017473
31.945644
35.171791
37.712837
39.549156
40.704845
41.309803
41.494671
41.247189
40.418571
38.853546
36.539074
33.682213
30.613710
27.577971
24.658119
21.872221
19.228449
16.680056
14.106871
11.428406
8.718866
6.081228
3.480854
0.871224
-1.629688
-3.802031
-5.467804
-6.552527
-7.069998
-7.051620
-6.488614
-5.368349
-3.762765
-1.841625
0.237423
2.450190
4.866731
7.504947
10.305438
13.211881
16.185726
19.158482
21.992619
24.465614
26.301680
27.263853
27.258963
26.379416
24.822981
22.789024
20.506866
18.281382
16.393116
14.946859
13.849935
12.970695
12.264889
11.708616
11.250065
10.854480
10.449540
9.927986
9.347841
8.892419
8.548134
8.129743
7.566068
6.874685
6.028831
5.039045
3.993408
2.929169
1.758716
0.387495
-1.115349
-2.579556
-3.909789
-5.004539
-5.675861
-5.859948
-5.655955
-5.110785
-4.294331
-3.467532
-2.867465
-2.500576
-2.286642
-2.224800
-2.399298
-2.941736
-3.966695
-5.478995
-7.349580
-9.408515
-11.566471
-13.815206
-16.107494
-18.326410
-20.352917
-22.032906
-23.168554
-23.688257
-23.726049
-23.505201
-23.273911
-23.267023
-23.574482
-24.143309
-24.953835
-26.036385
-27.327866
-28.650335
-29.789097
-30.537598
-30.750198
-30.418455
-29.688967
-28.786043
-27.889030
-27.037329
-26.131941
-25.050798
-23.747707
-22.222284
-20.469959
-18.529503
-16.566933
-14.863118
-13.674722
-13.108112
-13.105287
-13.498535
-14.113425
-14.886708
-15.860846
-17.046705
-18.371435
-19.761711
-21.188454
-22.643332
-24.122559
-25.619879
-27.113569
-28.550913
-29.837870
-30.849131
-31.471809
-31.646870
-31.346836
-30.549726
-29.299986
-27.762688
-26.145861
-24.533554
-22.845367
-21.038473
-19.234337
-17.562090
-16.054005
-14.742425
-13.713266
-13.035542
-12.683478
-12.552596
-12.545422
-12.605525
-12.687659
-12.730778
-12.645700
-12.317724
-11.646025
-10.644123
-9.532226
-8.621715
-8.047155
-7.728923
-7.579782
-7.612128
-7.903691
-8.547576
-9.581778
-10.921497
-12.361817
-13.614069
-14.318010
-14.089235
-12.656620
-9.997108
-6.306939
-1.816616
3.316634
8.944457
14.869010
20.845152
26.571226
31.782692
36.454437
40.811771
45.069935
49.193920
52.952217
56.191582
58.935520
61.247696
63.194782
64.897270
66.479912
67.995010
69.404091
70.585228
71.358879
71.530563
70.898178
69.271339
66.605370
63.093128
59.020634
54.578415
49.867599
45.006622
40.148174
35.382778
30.687235
26.023624
21.459927
17.142889
13.137948
9.370156
5.770090
2.343080
-0.940816
-4.157728
-7.293854
-10.194085
-12.713786
-14.921646
-17.065508
-19.325113
-21.654104
-23.816425
-25.533422
-26.647274
-27.180599
-27.231136
-26.844803
-26.046692
-24.976812
-23.907934
-23.042793
-22.347567
-21.681566
-21.029636
-20.557453
-20.488104
-20.958614
-21.998228
-23.608519
-25.807646
-28.578896
-31.866173
-35.717625
-40.333012
-45.831520
-51.998344
-58.317162
-64.273422
-69.605133
-74.254997
-78.191414
-81.363335
-83.800514
-85.658844
-87.103867
-88.204720
-88.980400
-89.511856
-89.983101
-90.604630
-91.482857
-92.542343
-93.566971
-94.319199
-94.621330
-94.347069
-93.399284
-91.775543
-89.639290
-87.224556
-84.655197
-81.915215
-79.027336
-76.210236
-73.747269
-71.702599
-69.852936
-67.933548
-65.926659
-64.030556
-62.359516
-60.762375
-58.958824
-56.800629
-54.280357
-51.311195
-47.645599
-43.015175
-37.307232
-30.600603
-23.087320
-15.053216
-6.892271
0.947732
8.058462
14.168986
19.218370
23.348785
26.814602
29.856916
32.615330
35.128101
37.401852
39.476196
41.395302
43.141994
44.708172
46.173321
47.566803
48.801121
49.874577
50.915306
51.966908
52.946526
53.810822
54.640057
55.547726
56.550041
57.586674
58.662739
59.901867
61.410694
63.115376
64.837074
66.495834
68.118164
69.710197
71.200592
72.436356
73.194641
73.225502
72.296417
70.224075
66.913979
62.393627
56.799587
50.353188
43.394421
36.409389
29.922890
24.275314
19.513584
15.537776
12.246456
9.475418
6.933231
4.305425
1.437375
-1.559818
-4.371226
-6.681388
-8.336153
-9.303527
-9.601019
-9.343498
-8.685022
-7.651653
-6.192450
-4.378626
-2.445312
-0.656958
0.832647
1.990372
2.856877
3.566236
4.329833
5.348095
6.805884
8.853480
11.420510
14.178304
16.821251
19.250431
21.449390
23.307619
24.631300
25.303164
25.299232
24.535236
22.852341
20.169376
16.582619
12.309236
7.574456
2.615323
-2.274921
-6.806469
-10.740008
-13.864160
-16.051908
-17.365398
-18.029076
-18.291819
-18.327286
-18.221445
-18.007666
-17.714806
-17.424192
-17.285881
-17.396349
-17.659525
-17.885994
-17.990908
-17.999477
-17.959965
-17.939215
-18.052996
-18.463848
-19.329769
-20.686132
-22.350376
-24.026489
-25.507734
-26.703920
-27.572058
-28.120861
-28.371859
-28.239344
-27.493053
-25.867153
-23.212185
-19.522594
-14.846541
-9.254975
-2.895928
3.954021
10.895257
17.524328
23.649645
29.367800
34.834717
40.043488
44.902538
49.408386
53.623482
57.485870
60.811409
63.571152
65.921661
67.932137
69.551170
70.780670
71.722511
72.581360
73.691246
75.424942
78.012375
81.454849
85.617226
90.369209
95.593185
101.112717
106.700066
112.129189
117.203575
121.797791
125.910461
129.645401
133.088699
136.200089
138.889343
141.157776
143.039291
144.515305
145.628845
146.504410
147.175552
147.570343
147.638580
147.357559
146.690750
145.607483
144.058136
141.915817
139.006973
135.187042
130.382996
124.614494
117.962105
110.460411
102.050583
92.707985
82.614685
72.193832
61.969032
52.317371
43.324135
34.963165
27.361431
20.660656
14.699233
9.068110
3.435716
-2.291720
-8.142911
-14.349478
-21.351540
-29.545790
-39.058254
-49.778976
-61.564529
-74.303642
-87.841171
-101.921898
-116.187668
-130.194748
-143.418137
-155.327866
-165.561234
-173.968933
-180.490280
-185.075424
-187.726868
-188.565231
-187.795258
-185.604355
-182.170990
-177.746811
-172.650696
-167.179047
-161.535278
-155.826675
-150.095459
-144.344833
-138.556580
-132.711670
-126.820671
-120.964722
-115.338661
-110.269371
-106.156258
-103.284081
-101.615555
-100.803452
-100.389503
-99.931595
-99.038506
-97.403862
-94.803368
-91.070190
-86.099342
-79.817184
-72.106804
-62.794498
-51.718727
-38.778378
-23.864902
-6.815790
12.328173
32.921055
53.698856
73.188057
90.096458
103.526848
113.124359
119.126625
122.206589
123.178940
122.756119
121.466568
119.682755
117.679131
115.716537
114.042984
112.757393
111.736053
110.735962
109.559692
108.140785
106.517601
104.795639
103.117027
101.557198
100.108917
98.861504
98.014275
97.614349
97.470314
97.313866
96.880066
95.909248
94.202782
91.661476
88.275940
84.135017
79.449074
74.540031
69.760033
65.401947
61.719574
58.951397
57.226604
56.530708
56.805595
58.009617
60.093456
62.962757
66.455559
70.348694
74.406425
78.448257
82.386070
86.248268
90.183990
94.344780
98.703117
103.028252
107.078499
110.816429
114.372971
117.787498
120.850861
123.208885
124.593803
124.930412
124.215233
122.318382
118.918648
113.669060
106.454002
97.558067
87.668152
77.631462
68.087547
59.344120
51.570885
44.921268
39.457016
35.137791
31.884367
29.542274
27.792917
26.181664
24.297514
21.884455
18.714785
14.456594
8.758653
1.407960
-7.631571
-18.281290
-30.340029
-43.392559
-56.872967
-70.216797
-82.816544
-94.014626
-103.366768
-110.800476
-116.479752
-120.642838
-123.578178
-125.700844
-127.548569
-129.636078
-132.358078
-135.991287
-140.693207
-146.470749
-153.160583
-160.488419
-168.138550
-175.719101
-182.768127
-188.921173
-194.061813
-198.329224
-202.026810
-205.478058
-208.882858
-212.227600
-215.299408
-217.835007
-219.703918
-220.952133
-221.636780
-221.651352
-220.809174
-219.028244
-216.322418
-212.690536
-208.085098
-202.437363
-195.697906
-187.885056
-179.056198
-169.186432
-158.087967
-145.512955
-131.407852
-115.999748
-99.617538
-82.632759
-65.640068
-49.541771
-35.295235
-23.496687
-14.286033
-7.622093
-3.471601
-1.737881
-2.096467
-3.991611
-6.816406
-10.012417
-13.092570
-15.708348
-17.595512
-18.416460
-17.828175
-15.654631
-11.769703
-5.966341
1.813187
11.243935
21.692019
32.415699
42.736477
52.128441
60.235596
66.881599
72.046188
75.784065
78.166336
79.313141
79.474785
79.025299
78.329407
77.631729
77.099686
76.928894
77.288490
78.181351
79.501266
81.192558
83.251060
85.601776
88.017738
90.162163
91.731094
92.607208
92.954445
93.185074
93.766716
95.063332
97.395271
101.087471
106.300751
112.885147
120.468643
128.650314
137.011688
144.951263
151.741821
156.804932
159.748566
160.233017
158.007751
153.015366
145.389633
135.400803
123.459801
110.185654
96.250603
81.996986
67.306488
51.787228
34.976097
16.518528
-3.652832
-25.262659
-47.695805
-69.941605
-90.798843
-109.387741
-125.302162
-138.377884
-148.695602
-156.680817
-162.941864
-168.045578
-172.425507
-176.386414
-180.159576
-183.963654
-187.957291
-192.092880
-196.100693
-199.712234
-202.922913
-205.950211
-208.895889
-211.554184
-213.499420
-214.207413
-213.164261
-210.000168
-204.518616
-196.677490
-186.705383
-175.180984
-162.864044
-150.381378
-138.031174
-125.897408
-114.034302
-102.408974
-90.799858
-78.863632
-66.236870
-52.578377
-37.604576
-21.183481
-3.497539
14.847999
32.896252
49.574604
64.042747
75.986855
85.555244
93.067375
98.927933
103.628204
107.605530
111.170441
114.569092
117.967087
121.316536
124.282753
126.366783
127.136749
126.324348
123.771698
119.416275
113.342422
105.850525
97.495438
89.006538
81.097168
74.268402
68.706955
64.322487
60.883595
58.165848
56.019642
54.323624
52.947536
51.789238
50.789333
49.966576
49.529327
49.866295
51.320068
53.968361
57.618164
61.973339
66.757553
71.691742
76.503258
81.003685
85.060440
88.525902
91.268166
93.206581
94.280624
94.424507
93.575874
91.714424
88.919312
85.377663
81.276466
76.664970
71.467407
65.648636
59.348103
52.805775
46.149078
39.304405
32.135742
24.627823
16.841082
8.740241
0.243501
-8.600064
-17.600883
-26.583246
-35.518520
-44.487095
-53.527122
-62.562733
-71.498985
-80.370850
-89.346001
-98.585960
-108.147110
-118.002785
-128.118301
-138.463852
-148.937012
-159.287277
-169.174271
-178.311783
-186.443558
-193.212738
-198.219986
-201.148972
-201.749008
-199.812531
-195.280319
-188.369629
-179.560287
-169.475800
-158.831360
-148.406876
-138.851440
-130.466736
-123.271034
-117.179810
-112.009697
-107.402626
-102.896568
-98.135666
-92.949478
-87.235390
-80.973091
-74.328651
-67.477371
-60.408642
-53.102215
-45.751694
-38.696209
-32.209290
-26.401274
-21.297352
-16.892590
-13.111579
-9.875809
-7.187644
-4.995557
-3.082575
-1.202108
0.778392
2.916269
5.318317
8.138781
11.438719
15.204524
19.493099
24.355457
29.689121
35.314430
41.095131
46.920246
52.638836
58.029728
62.822292
66.793884
69.880424
72.138885
73.579094
74.074409
73.459045
71.723694
69.093842
65.894539
62.356945
58.581921
54.679733
50.838802
47.210934
43.801422
40.488438
37.134583
33.702984
30.277920
26.962994
23.792166
20.786577
18.059881
15.829912
14.351990
13.838904
14.429983
16.265182
19.553684
24.450806
30.908987
38.788116
47.975559
58.251900
69.269775
80.784851
92.734276
105.080360
117.654198
130.117477
142.034378
152.973602
162.619980
170.865295
177.733932
183.232712
187.417923
190.562973
193.087311
195.304718
197.283356
198.939713
200.217804
201.116898
201.549149
201.238739
199.860519
197.274918
193.504272
188.526978
182.230072
174.519608
165.430573
155.162857
144.013412
132.283813
120.284065
108.401680
97.067558
86.612793
77.210335
68.975632
62.060719
56.548508
52.260025
48.760967
45.530499
42.066551
37.925930
32.786625
26.496464
19.046278
10.490565
0.895471
-9.634563
-20.907677
-32.707874
-44.959229
-57.748699
-71.123833
-84.916046
-98.730446
-112.013664
-124.179436
-134.778595
-143.579132
-150.504288
-155.532669
-158.721954
-160.350235
-160.836243
-160.421219
-159.067703
-156.601974
-152.833023
-147.655716
-141.138718
-133.459839
-124.818535
-115.517326
-105.918083
-96.169907
-86.202637
-76.021568
-65.814423
-55.769665
-45.904705
-36.177753
-26.757990
-18.054422
-10.458710
-4.100408
1.134847
5.389530
8.730193
11.274779
13.365028
15.461005
17.809698
20.377605
23.068975
25.837233
28.661089
31.536007
34.479267
37.518742
40.662460
43.845959
46.913673
49.731354
52.300686
54.641754
56.626720
58.037254
58.664165
58.273880
56.564331
53.219788
48.024426
40.884487
31.801172
21.000380
9.061693
-3.216569
-15.040687
-25.738789
-34.901600
-42.501865
-48.748940
-53.829060
-57.843327
-60.876320
-63.048489
-64.546341
-65.540382
-66.006073
-65.709167
-64.364136
-61.679199
-57.380981
-51.432674
-44.123699
-35.850227
-26.943939
-17.725191
-8.628435
-0.208431
7.029844
12.809124
17.107515
20.045900
21.784197
22.527899
22.489910
21.774996
20.401241
18.427834
16.001194
13.300902
10.468921
7.596376
4.755153
2.016683
-0.555951
-2.943460
-5.221310
-7.548894
-10.059929
-12.790506
-15.732335
-18.880291
-22.182823
-25.478029
-28.545891
-31.275263
-33.757576
-36.199883
-38.758221
-41.441525
-44.148319
-46.744450
-49.099525
-51.115051
-52.727566
-53.851154
-54.349285
-54.092274
