EVENT_NAME: None
EVENT_ID: TK-1998-0063
EVENT_DATE_YYYYMMDD: 19980627
EVENT_TIME_HHMMSS: 135555
EVENT_LATITUDE_DEGREE: 36.9312
EVENT_LONGITUDE_DEGREE: 35.2796
EVENT_DEPTH_KM: 37.9
HYPOCENTER_REFERENCE: ISC-webservice
MAGNITUDE_W: 6.3
MAGNITUDE_W_REFERENCE: USGS-webservice
MAGNITUDE_L: 
MAGNITUDE_L_REFERENCE: 
FOCAL_MECHANISM: 
NETWORK: TK
STATION_CODE: 0105
STATION_NAME: AI_022_CYH_TIM
STATION_LATITUDE_DEGREE: 37.026700
STATION_LONGITUDE_DEGREE: 35.816240
STATION_ELEVATION_M: 
LOCATION: 00
SENSOR_DEPTH_M: 
VS30_M/S: 
SITE_CLASSIFICATION_EC8: C (inferred from topography)
MORPHOLOGIC_CLASSIFICATION: 
EPICENTRAL_DISTANCE_KM: 48.9
EARTHQUAKE_BACKAZIMUTH_DEGREE: 77.3
DATE_TIME_FIRST_SAMPLE_YYYYMMDD_HHMMSS: 19980627_135553.000
DATE_TIME_FIRST_SAMPLE_PRECISION: seconds
SAMPLING_INTERVAL_S: 0.005000
NDATA: 5843
DURATION_S: 29.215
STREAM: HNE
UNITS: cm/s^2
INSTRUMENT: HN
INSTRUMENT_ANALOG/DIGITAL: A
INSTRUMENTAL_FREQUENCY_HZ: 
INSTRUMENTAL_DAMPING: 
FULL_SCALE_G: 
N_BIT_DIGITAL_CONVERTER: 
PGA_CM/S^2: 271.954712
TIME_PGA_S: 8.695000
BASELINE_CORRECTION: BASELINE REMOVED
FILTER_TYPE: BUTTERWORTH
FILTER_ORDER: 2
LOW_CUT_FREQUENCY_HZ: 0.100
HIGH_CUT_FREQUENCY_HZ: 30.000
LATE/NORMAL_TRIGGERED: NT
DATABASE_VERSION: 0.5
HEADER_FORMAT: DYNA 1.2
DATA_TYPE: ACCELERATION
PROCESSING: manual (Paolucci et al., 2011)
DATA_TIMESTAMP_YYYYMMDD_HHMMSS: 20240505_201533.004
DATA_LICENSE: U (unknown license)
DATA_CITATION: Luzi L., Lanzano G., Felicetta C., D Amico M. C., Russo E., Sgobba S., Pacor, F., & ORFEUS Working Group 5 (2020). Engineering Strong Motion Database (ESM) (Version 2.0). Istituto Nazionale di Geofisica e Vulcanologia (INGV). https://doi.org/10.13127/ESM.2
DATA_CREATOR: ESM working group
ORIGINAL_DATA_MEDIATOR_CITATION: Akkar et al. (2010) DOI: 10.1007/s10950-009-9176-9
ORIGINAL_DATA_MEDIATOR: Strong Ground Motion Database of Turkiye
ORIGINAL_DATA_CREATOR_CITATION: Disaster And Emergency Management Authority. (1973). Turkish National Strong Motion Network. Department of Earthquake, Disaster and Emergency Management Authority. https://doi.org/10.7914/SN/TK http://www.fdsn.org/networks/detail/TK/
ORIGINAL_DATA_CREATOR: network: TK (Turkish National Strong Motion Network (TNSMN)); owner: Disaster and Emergency Management Authority (AFAD)
USER1: 
USER2: 
USER3: 
USER4: 
USER5: 
[...]
17.911827
14.420635
10.607587
6.099439
0.885014
-4.703795
-10.237375
-15.400887
-20.086323
-24.226616
-27.612816
-30.092237
-31.818981
-33.024364
-33.767200
-34.124672
-34.258842
-34.132103
-33.456329
-32.116257
-30.588737
-29.578718
-29.223209
-29.173849
-29.277781
-29.668358
-30.371798
-31.116610
-31.580971
-31.680185
-31.429939
-30.750692
-29.551311
-27.698935
-24.953167
-21.283895
-17.060486
-12.730772
-8.613927
-4.988750
-2.037861
0.333032
2.484540
4.724829
7.031398
9.266055
11.389246
13.174062
14.243792
14.675373
15.016261
15.618879
16.353487
17.001051
17.729725
18.961880
20.817089
22.973421
25.105900
27.297384
29.817381
32.546707
34.920441
36.436996
37.038902
36.859333
35.748932
33.444016
30.050983
26.052011
21.996641
18.275856
15.011916
12.064382
9.176315
6.101212
2.622955
-1.336868
-5.556699
-9.579044
-12.983634
-15.619922
-17.626038
-19.270451
-20.782005
-22.263998
-23.728971
-25.181873
-26.641571
-28.122261
-29.610493
-31.035368
-32.260578
-33.172855
-33.869263
-34.666588
-35.777748
-37.138405
-38.661888
-40.417149
-42.420372
-44.365627
-45.819920
-46.744022
-47.343540
-47.472206
-46.872818
-45.713242
-44.311092
-42.701412
-40.767418
-38.567146
-36.333862
-34.180923
-32.134949
-30.486034
-29.578238
-29.296524
-29.240873
-29.199701
-29.166811
-29.156881
-29.160248
-29.159925
-29.139162
-29.092506
-29.051483
-29.117203
-29.451893
-30.132965
-30.956320
-31.563841
-31.790234
-31.606152
-30.842363
-29.308596
-27.070513
-24.476204
-21.965734
-19.771198
-17.719444
-15.419642
-12.677836
-9.557312
-6.151709
-2.617683
0.847416
4.378741
8.443837
13.301581
18.726040
24.195156
29.173153
33.420174
37.132069
40.544086
43.612923
46.439178
49.358227
52.293564
54.909302
57.361546
60.027950
62.823948
65.313301
67.125900
68.093086
68.201576
67.546188
66.360382
64.970230
63.643459
62.555523
61.753571
61.012909
60.000679
58.725189
57.574200
56.881527
56.615150
56.446224
56.033470
55.219765
53.947754
51.987942
48.935364
44.619629
39.225685
32.990208
26.155058
19.101805
12.274151
6.019896
0.520319
-4.130117
-7.778703
-10.231039
-11.463711
-11.815281
-11.852513
-12.061152
-12.793961
-14.207579
-16.050995
-18.008265
-20.314386
-23.547029
-27.871359
-32.732609
-37.312813
-41.234261
-44.642078
-47.721756
-50.347267
-52.111320
-52.630550
-51.829681
-49.970814
-47.483978
-44.736740
-41.894932
-38.981136
-36.022831
-33.148438
-30.607269
-28.633883
-27.133402
-25.667721
-24.057756
-22.576405
-21.251215
-19.823092
-18.449392
-17.419691
-16.509726
-15.390154
-14.078233
-12.602074
-10.721699
-8.183778
-5.042963
-1.365834
3.354205
9.837336
18.009335
26.798605
34.912956
41.662750
47.013126
51.029766
53.526554
54.286324
53.566887
52.035870
50.196831
48.376774
46.872589
45.587521
44.166969
42.654022
41.219875
39.595783
37.615173
35.670662
34.125450
32.960228
32.007557
30.985415
29.648941
28.201702
26.933163
25.469934
23.121386
19.634018
15.072351
9.431359
2.764383
-4.470574
-11.582806
-18.304245
-24.787184
-30.922955
-36.339279
-40.846794
-44.263645
-46.301456
-47.017342
-46.713764
-45.382702
-42.952206
-39.821365
-36.643051
-33.683197
-30.674124
-27.559687
-24.959866
-23.455284
-23.048100
-23.509825
-24.594709
-25.918020
-26.968201
-27.253012
-26.488535
-24.715714
-22.123896
-18.665722
-14.038100
-8.172899
-1.444979
5.637897
12.627992
19.130964
24.814644
29.298063
32.087326
32.827370
31.516045
28.418444
23.944040
18.597349
12.839152
6.936372
1.106222
-4.203779
-8.402688
-11.260421
-13.170771
-14.682300
-15.978576
-17.040457
-18.075062
-19.472916
-21.276911
-23.081541
-24.725780
-26.641956
-29.308825
-32.655571
-36.134979
-39.283360
-41.918964
-43.868389
-44.966339
-45.137905
-44.098377
-41.390873
-37.027836
-31.655640
-26.081423
-21.066805
-17.260857
-14.849649
-13.438107
-12.495806
-11.910940
-11.933609
-12.523620
-13.269892
-13.946421
-14.447934
-14.520761
-14.134472
-13.472591
-12.306759
-10.079808
-6.520494
-1.723827
3.960013
9.846907
15.223868
19.758930
23.186386
25.056938
25.279091
24.279806
22.463667
20.064835
17.319529
14.399513
11.368344
8.341559
5.660796
3.874850
3.422729
4.162982
5.262824
5.925917
6.194907
6.662581
7.646729
8.888985
9.792554
9.910687
9.353305
8.631281
8.130010
8.081372
8.715754
9.689652
9.921968
8.700579
6.220016
2.886303
-1.027122
-5.160492
-9.063713
-12.384174
-15.008403
-17.026806
-18.510038
-19.345551
-19.427801
-18.962860
-18.189285
-16.921099
-14.870819
-12.013734
-8.256566
-3.340952
2.734224
9.612689
16.864162
24.080189
30.734749
36.251156
40.437546
43.653786
46.310493
48.508732
50.259308
51.577980
52.334232
52.365238
51.690041
50.468433
48.799618
46.661232
44.157417
41.689445
39.666927
38.067520
36.487892
34.870136
33.818569
33.779800
34.438591
35.169682
35.600121
35.654373
35.268742
34.264290
32.591404
30.478752
28.175636
25.659142
22.913752
20.477699
19.047110
18.586742
18.566219
18.755163
19.194490
19.692467
19.752842
19.072598
17.870319
16.521177
15.140609
13.628584
11.862118
9.880977
8.030162
6.675249
5.725264
4.901691
4.344897
4.391949
4.995437
5.720287
6.186545
6.387210
6.508515
6.550448
6.247591
5.233127
3.201058
-0.004096
-4.201637
-8.607872
-12.139506
-14.249091
-15.164885
-15.359159
-15.100002
-14.490667
-13.715334
-12.970873
-12.297200
-11.828653
-11.832588
-12.224639
-12.709277
-13.493152
-15.212742
-18.213709
-22.179649
-26.366816
-30.069920
-32.790703
-34.236652
-34.460884
-33.817619
-32.633762
-30.991455
-28.814665
-26.169121
-23.412788
-21.001007
-19.263220
-18.344667
-18.243097
-18.867777
-20.069365
-21.730343
-23.813375
-26.132713
-28.230988
-29.651901
-30.056467
-29.038391
-26.152924
-21.269323
-14.904041
-8.019285
-1.392436
4.631533
9.935776
14.433545
17.937696
20.140142
20.754768
19.710173
17.267000
13.964892
10.428632
7.081716
3.953096
0.916230
-1.888651
-4.003305
-4.990658
-4.769703
-3.549462
-1.554077
0.994471
3.834580
6.777894
9.692361
12.351085
14.452356
15.964451
17.430092
19.513178
22.241890
25.115023
27.670441
29.663532
31.167986
32.580265
34.085575
35.464783
36.832821
38.773495
41.452297
44.405579
47.089085
49.072983
50.151905
50.675175
51.394218
52.720856
54.260239
55.277771
55.632568
55.893074
56.592041
57.802502
59.293179
60.753613
61.845322
62.238506
61.806450
60.587391
58.353653
54.558044
48.976254
42.198166
35.220860
28.573820
22.233240
16.312691
11.053427
6.238377
1.375564
-3.604202
-8.168174
-11.729227
-14.297911
-16.461504
-18.789396
-21.404402
-24.141325
-27.017134
-30.401829
-34.705498
-39.958061
-45.873055
-52.246918
-58.898460
-65.383354
-71.131538
-75.662743
-78.649574
-80.145317
-80.693405
-80.885468
-80.880676
-80.491814
-79.556557
-78.097725
-76.235161
-74.207443
-72.566414
-71.915482
-72.221077
-72.687637
-72.406410
-71.022415
-68.786156
-66.115433
-63.275337
-60.360519
-57.421196
-54.608261
-52.192360
-50.427120
-49.397072
-49.031914
-49.292259
-50.217819
-51.594723
-52.781895
-53.309341
-53.457752
-53.945351
-55.349533
-57.839123
-61.051708
-64.289413
-67.094147
-69.531700
-71.800789
-73.623466
-74.222458
-73.100533
-70.559219
-67.222183
-63.244724
-58.217220
-52.016155
-45.349220
-39.096649
-33.514427
-28.273777
-23.110001
-18.175560
-13.624687
-9.277307
-4.844516
-0.118684
4.954636
10.102667
14.825767
18.830521
22.179741
25.042433
27.525009
29.833118
32.485058
36.042549
40.613953
45.953526
51.976482
58.858711
66.525314
74.165138
80.513702
84.778671
87.296700
89.075180
90.716103
92.125381
92.985558
93.071091
92.218086
90.193718
86.654945
81.162704
73.220276
62.580269
49.790802
36.208286
23.317795
12.248481
3.573048
-2.861566
-7.470583
-10.225704
-10.933745
-9.940546
-8.129056
-6.327815
-4.800399
-3.380593
-1.932944
-0.458965
1.025004
2.517276
3.992643
5.367873
6.513574
7.376331
8.068526
8.622954
8.788476
8.418387
7.677199
6.560274
4.889674
2.890727
1.051718
-0.414165
-1.477686
-2.059381
-2.151724
-1.862691
-1.372435
-1.050007
-1.243943
-1.767420
-2.095234
-2.068474
-1.975024
-2.227638
-3.236998
-5.206917
-7.889736
-10.757086
-13.327848
-15.246801
-16.429953
-17.261906
-18.297501
-19.854488
-22.124020
-25.230440
-28.957443
-32.930477
-37.232059
-42.561424
-49.708088
-58.858688
-69.477982
-80.775269
-92.029701
-102.633583
-112.114372
-120.135071
-126.493797
-131.132889
-134.147568
-135.858643
-136.739044
-137.089066
-136.811432
-135.536896
-132.970581
-128.951614
-123.249367
-115.738365
-106.705215
-96.710487
-86.331482
-76.057098
-65.997566
-55.755360
-45.072979
-34.282398
-23.804520
-13.884706
-4.930320
2.524463
8.194283
12.215685
15.122038
17.650255
20.327581
23.158207
25.815119
28.031334
29.648689
30.362930
29.754045
27.843485
25.244877
22.526114
19.823078
17.002251
13.792364
9.889924
5.226941
0.138124
-4.793915
-9.084319
-12.635533
-15.785832
-19.099878
-23.018982
-27.590622
-32.650185
-38.350304
-45.046185
-52.571915
-60.414391
-68.485855
-76.933853
-85.550766
-93.837692
-101.286377
-107.493225
-112.211525
-115.319672
-116.715401
-116.121368
-112.971535
-106.616463
-96.583763
-82.732307
-65.414551
-45.548294
-24.348263
-2.903798
17.806753
36.792004
53.297062
66.838745
77.074554
84.079369
88.393486
90.604996
91.281349
91.017403
90.003494
87.956314
84.845383
80.913055
75.966797
69.779640
62.937084
56.522091
51.344334
47.673840
45.410637
44.417149
44.704052
46.308922
49.040779
52.535854
56.701717
61.978928
68.943512
77.538773
86.936485
96.167244
104.562378
111.847466
118.162132
123.737175
128.517242
132.380692
135.418701
137.673203
139.030533
139.509857
139.153610
137.735153
135.069992
131.391693
127.213142
123.107796
119.613762
117.107170
115.595718
114.596306
113.523369
112.283310
111.174606
110.283485
109.258759
107.736275
105.767792
103.456253
100.528053
96.776665
92.372215
87.467987
82.117035
76.574989
71.254318
66.382629
61.794128
57.080841
52.004684
46.782326
41.937611
37.866924
34.653545
32.205036
30.320395
28.725685
27.212761
25.698830
24.169619
22.655760
21.275568
20.241268
19.717926
19.628378
19.672119
19.487675
18.714022
17.180597
15.206338
13.330024
11.719157
10.237704
8.898821
7.911703
7.410563
7.278768
7.247162
7.085725
6.659389
5.982923
5.251403
4.582766
3.849431
2.992233
2.159387
1.435633
0.947100
1.070973
1.969181
3.213371
4.182227
4.483047
3.961587
2.595304
0.450147
-2.278679
-5.286267
-8.227743
-10.624871
-11.885160
-11.673376
-10.109509
-7.506805
-4.038439
0.186433
4.618781
8.293772
10.654622
11.857154
12.151847
11.317094
8.845979
4.647307
-0.813337
-6.998105
-13.392012
-19.451130
-24.980120
-30.352894
-36.123547
-42.386108
-48.626663
-54.316853
-59.367809
-63.886158
-67.786469
-70.825012
-72.990845
-74.550156
-75.600487
-75.951958
-75.433540
-74.039284
-71.884377
-69.194397
-66.247253
-63.281734
-60.587589
-58.600918
-57.738842
-58.184528
-59.848034
-62.499874
-65.918884
-69.864273
-74.080093
-78.464333
-83.075134
-87.881294
-92.588455
-96.957306
-101.274567
-105.974571
-110.926964
-115.701302
-120.101387
-123.969933
-126.970818
-128.875931
-129.850372
-130.257141
-130.143616
-129.021530
-126.160400
-120.984901
-113.269585
-103.178917
-91.188492
-78.039772
-64.821838
-52.734741
-42.464417
-33.937782
-26.670380
-20.153181
-14.066462
-8.379527
-3.274231
1.045082
4.362116
6.295797
6.334325
4.107078
-0.300162
-6.320476
-13.201546
-20.217575
-26.732552
-32.185532
-36.019661
-37.750427
-37.135616
-34.291977
-29.691196
-23.795250
-16.672297
-8.375929
0.552298
9.537364
18.558491
27.793512
36.951107
45.257359
52.070980
57.227032
60.684052
62.343422
62.385868
61.286373
59.453758
57.166485
54.608620
51.890839
49.543186
48.647079
49.813278
52.785156
57.405300
63.812576
71.768250
80.918106
91.316139
102.918678
115.070732
126.855331
137.583023
146.837570
154.271210
159.718277
163.499176
166.013519
167.154907
166.650040
164.336884
159.738602
152.126694
141.209656
127.486916
112.038551
96.107857
80.647049
66.105438
52.830872
41.195835
30.933138
21.349346
12.453507
4.884565
-1.048901
-5.612865
-9.277179
-12.379763
-15.029017
-17.258821
-19.318113
-21.677788
-24.683481
-28.495747
-33.415157
-40.010098
-48.731644
-59.400257
-71.518288
-84.921860
-99.346184
-113.908295
-127.786797
-140.867355
-153.365341
-165.053955
-175.236877
-183.650177
-190.645569
-196.367569
-200.762772
-204.147781
-206.911774
-209.042847
-210.317719
-210.546371
-209.558929
-207.250412
-203.544601
-198.251755
-191.198944
-182.432877
-172.031525
-159.976532
-146.503601
-132.016113
-116.466690
-99.476440
-81.011391
-61.549313
-41.642052
-21.394428
-0.325912
22.519991
48.490299
78.828400
113.186134
147.986420
177.645493
199.303360
215.233810
229.462814
243.496140
255.823029
264.669739
269.941864
271.954712
270.012177
263.565674
254.290344
245.574570
239.198730
234.127655
228.810699
222.343140
213.690201
201.902267
187.382919
172.242661
158.365555
145.411774
132.169678
118.684502
105.689484
93.513000
82.320007
72.518135
64.589699
58.636814
54.339844
51.454830
50.154877
50.841232
53.580677
57.804050
62.631680
67.390274
71.816689
75.761574
78.922134
81.138908
82.762672
84.401947
86.178192
87.561005
88.110970
87.705017
86.043228
82.785965
77.949471
71.663727
63.970718
55.124771
45.770000
36.646381
28.196884
20.434889
13.044064
5.563803
-2.398141
-11.012550
-20.229055
-29.931433
-40.225189
-51.580853
-64.525909
-79.191536
-95.109863
-111.310097
-126.733925
-140.774307
-153.386871
-164.593124
-174.107422
-181.624725
-187.231613
-191.354553
-194.392319
-196.489288
-197.646988
-197.852570
-196.756454
-193.143280
-185.429276
-173.298813
-158.226883
-142.275009
-127.117744
-113.755272
-102.378693
-92.641327
-84.134430
-76.530136
-69.504913
-62.766972
-56.369724
-50.970417
-47.324116
-45.493202
-44.823807
-44.518700
-44.064377
-43.253922
-41.917809
-39.612514
-35.761581
-30.248636
-23.443481
-15.619750
-6.906241
2.247749
10.892354
18.011913
23.168907
26.477537
28.135185
28.389919
27.676279
26.502504
25.330875
24.494558
24.143070
24.396935
25.498268
27.531954
30.043497
32.229218
33.555508
34.113140
34.258705
33.965855
32.698753
29.700674
24.244240
15.880895
4.737009
-8.416942
-22.509422
-36.546917
-49.694229
-61.273899
-70.913177
-78.683090
-84.974983
-90.184433
-94.517464
-97.984451
-100.407494
-101.448906
-100.861137
-98.805946
-95.547752
-90.895561
-84.577156
-76.883217
-68.489883
-60.021748
-51.933758
-44.540157
-38.020897
-32.399410
-27.504709
-22.914978
-18.010336
-12.290708
-5.740194
1.269752
8.484698
15.982759
23.879751
31.964521
39.726856
46.757080
52.931309
58.245338
62.741665
66.597099
70.146194
73.676559
77.250496
81.025749
85.512154
91.089691
97.609070
104.676422
111.983253
119.294456
126.255241
132.313202
136.975311
140.165848
142.195755
143.222168
142.959290
141.208527
138.322769
134.887344
131.166199
127.092682
122.786942
118.455414
113.709557
107.888382
100.825073
92.563820
83.053734
72.609344
61.806770
50.873726
39.943752
29.523125
20.123669
11.793787
4.225065
-2.839009
-9.409992
-15.468487
-21.081455
-26.268126
-31.101652
-35.861046
-40.767899
-45.558769
-49.480366
-51.937935
-53.087444
-53.572422
-53.874607
-54.042179
-53.755123
-52.552902
-50.149181
-46.494987
-41.556789
-35.264790
-27.676474
-19.019083
-9.676446
-0.314815
8.200773
15.332162
21.293858
26.749846
32.000618
36.748596
40.716785
44.066097
47.205879
50.498184
54.052158
57.692635
61.286049
65.012611
69.054588
73.235619
77.212723
80.796120
83.919693
86.350128
87.634941
87.519821
86.166527
83.758041
79.994858
74.226112
66.290489
56.819145
46.606174
36.268745
26.196531
16.202168
5.697010
-5.427787
-16.642765
-27.555689
-38.341690
-49.405918
-60.832996
-72.270866
-83.283455
-93.597214
-103.070526
-111.606087
-119.094238
-125.496330
-131.048996
-136.153458
-140.939484
-145.358490
-149.721039
-154.434448
-159.355515
-164.090408
-168.508606
-172.512680
-175.764633
-177.817230
-178.213974
-176.406174
-171.844025
-164.402283
-154.653656
-143.426666
-131.172897
-118.097031
-104.646080
-91.484138
-79.034172
-67.262695
-56.052132
-45.493721
-35.600487
-26.057581
-16.488243
-6.902657
2.275348
10.666438
18.202951
25.007315
31.301243
37.314907
43.077862
48.365112
52.999367
57.297050
61.953701
67.251556
72.792458
78.153618
83.320442
88.363876
92.942284
96.453423
98.647629
99.431183
98.301369
94.824898
89.228439
82.035515
73.589447
64.122932
54.080650
43.929794
33.543858
22.537251
11.176552
-0.004577
-11.042716
-22.128433
-33.038086
-43.351326
-52.536301
-60.005325
-65.708221
-70.159775
-73.603279
-75.860008
-76.945580
-77.232498
-77.167244
-77.184593
-77.846542
-79.738464
-82.976624
-87.052689
-91.357338
-95.537460
-99.332001
-102.452225
-104.648865
-105.749512
-105.696754
-104.560143
-102.338799
-98.974586
-94.913399
-91.062843
-87.812706
-84.828262
-81.822662
-78.896812
-76.343765
-74.411850
-72.965080
-71.386337
-69.174629
-66.447815
-63.577320
-60.715904
-57.849018
-54.961426
-52.061546
-49.167549
-46.300766
-43.471668
-40.644463
-37.687717
-34.371689
-30.526516
-26.294594
-22.146988
-18.613106
-16.024342
-14.316956
-12.977568
-11.549626
-10.123794
-8.773339
-7.026895
-4.560480
-1.684290
1.158905
3.712631
5.841996
7.636608
9.406808
11.347292
13.276025
14.860791
16.153070
17.506613
18.913158
20.228937
21.945560
24.782627
28.732672
33.086243
37.338188
41.774021
46.837944
52.310398
57.598408
62.424213
66.984100
71.677299
76.712479
81.897614
86.859810
91.431084
95.606804
99.258430
102.212433
104.487694
106.264069
107.635704
108.452789
108.499641
107.793243
106.662582
105.563904
104.756134
104.102928
103.249161
102.046036
100.669388
99.312096
97.986641
96.558807
94.777466
92.372673
89.259598
85.582069
81.485168
76.859024
71.369728
64.857796
57.718143
50.723946
44.313248
38.203518
31.890034
25.293961
18.811352
12.896509
7.682413
3.004822
-1.271769
-5.046896
-8.152978
-10.659881
-12.888385
-15.033222
-16.838453
-17.902939
-18.141018
-17.568235
-16.048344
-13.634724
-10.633307
-7.202277
-3.378829
0.696200
4.967140
9.688540
15.242518
21.692110
28.606264
35.422020
41.871204
47.992615
53.777428
58.862228
62.638447
64.655174
64.878014
63.418907
60.191669
55.258427
